SOYUZ-MS 06             
1 42937U 17054A   17343.59062852  .00004112  00000-0  69339-4 0  9999
2 42937  51.6420 243.9083 0003080 212.9033 219.4815 15.54123815 13644
